NORAD_CAT_ID,OBJECT_NAME,OBJECT_TYPE,EPOCH,MEAN_MOTION,ECCENTRICITY,INCLINATION,RA_OF_ASC_NODE,ARG_OF_PERICENTER,MEAN_ANOMALY,BSTAR,MEAN_MOTION_DOT,MEAN_MOTION_DDOT,TLE_LINE0,TLE_LINE1,TLE_LINE2,SEMIMAJOR_AXIS,PERIOD,APOGEE,PERIGEE,DECAYED
53026.0,STARLINK-4119,PAYLOAD,2022-07-23 16:00:00,15.73203542,0.0002168,53.2187,299.7824,40.7436,65.2385,-2.0128e-05,-3.446e-05,0.0,0 STARLINK-4119,1 53026U 22076AS  22204.66667824 -.00003446  00000-0 -20128-4 0  9994,2 53026  53.2187 299.7824 0002168  40.7436  65.2385 15.73203542  3033,6727.885,91.533,351.209,348.291,0.0
53026.0,STARLINK-4119,PAYLOAD,2022-07-23 22:00:00,15.7319925,0.0001992,53.2182,298.5441,39.4775,43.2053,-1.1995999999999997e-05,-2.304e-05,0.0,0 STARLINK-4119,1 53026U 22076AS  22204.91667824 -.00002304  00000-0 -11996-4 0  9997,2 53026  53.2182 298.5441 0001992  39.4775  43.2053 15.73199250  1301,6727.897,91.533,351.103,348.422,0.0
53026.0,STARLINK-4119,PAYLOAD,2022-07-24 14:00:01,15.73247366,0.0001984,53.2187,295.2465,35.9019,224.615,-0.00048342,-0.00068062,0.0,0 STARLINK-4119,1 53026U 22076AS  22205.58334491 -.00068062  00000-0 -48342-3 0  9999,2 53026  53.2187 295.2465 0001984  35.9019 224.6150 15.73247366  1304,6727.76,91.53,350.96,348.29,0.0
53026.0,STARLINK-4119,PAYLOAD,2022-07-24 22:00:00,15.73226223,0.0001785,53.2188,293.5959,27.1534,322.3264,-0.00081859,-0.00114094,0.0,0 STARLINK-4119,1 53026U 22076AS  22205.91667824 -.00114094  00000-0 -81859-3 0  9992,2 53026  53.2188 293.5959 0001785  27.1534 322.3264 15.73226223  3233,6727.82,91.532,350.886,348.4840000000001,0.0
53026.0,STARLINK-4119,PAYLOAD,2022-07-25 14:00:01,15.7315184,0.0002005999999999,53.2188,290.2985,25.4807,141.7671,0.00031294,0.00043437,0.0,0 STARLINK-4119,1 53026U 22076AS  22206.58334491  .00043437  00000-0  31294-3 0  9995,2 53026  53.2188 290.2985 0002006  25.4807 141.7671 15.73151840  1300,6728.031999999997,91.536,351.247,348.548,0.0
53026.0,STARLINK-4119,PAYLOAD,2022-07-25 22:00:00,15.73202014,0.0001881,53.2182,288.648,26.1927,229.9419,-3.3869000000000004e-05,-5.372e-05,0.0,0 STARLINK-4119,1 53026U 22076AS  22206.91667824 -.00005372  00000-0 -33869-4 0  9990,2 53026  53.2182 288.6480 0001881  26.1927 229.9419 15.73202014  1305,6727.889,91.533,351.02,348.48900000000015,0.0
53026.0,STARLINK-4119,PAYLOAD,2022-07-26 14:00:01,15.7321277,0.0002028,53.2186,285.3508,25.3459,48.657,0.00036537,0.00050999,0.0,0 STARLINK-4119,1 53026U 22076AS  22207.58334491  .00050999  00000-0  36537-3 0  9992,2 53026  53.2186 285.3508 0002028  25.3459  48.6570 15.73212770  3495,6727.859,91.532,351.088,348.3590000000001,0.0
53026.0,STARLINK-4119,PAYLOAD,2022-07-26 22:00:00,15.73291094,0.0001927,53.2187,283.7,23.2408,139.7237,-0.00065048,-0.00091289,0.0,0 STARLINK-4119,1 53026U 22076AS  22207.91667824 -.00091289  00000-0 -65048-3 0  9996,2 53026  53.2187 283.7000 0001927  23.2408 139.7237 15.73291094  1309,6727.635,91.528,350.797,348.204,0.0
53026.0,STARLINK-4119,PAYLOAD,2022-07-27 06:00:02,15.73204324,0.0001999,53.2178,282.0412,31.6082,220.4324,7.6126e-06,4.48e-06,0.0,0 STARLINK-4119,1 53026U 22076AS  22208.25002315  .00000448  00000-0  76126-5 0  9998,2 53026  53.2178 282.0412 0001999  31.6082 220.4324 15.73204324  3608,6727.8830000000025,91.533,351.093,348.403,0.0
53026.0,STARLINK-4119,PAYLOAD,2022-07-27 14:00:01,15.73245289,0.0002195999999999,53.2184,280.4025,24.3227,316.6478,-0.00033092,-0.00046901,0.0,0 STARLINK-4119,1 53026U 22076AS  22208.58334491 -.00046901  00000-0 -33092-3 0  9996,2 53026  53.2184 280.4025 0002196  24.3227 316.6478 15.73245289  1305,6727.766,91.531,351.108,348.154,0.0
53026.0,STARLINK-4119,PAYLOAD,2022-07-27 16:00:00,15.73225278,0.0002226,53.2181,279.9901,23.8226,69.3961,-0.00012859,-0.0001865,0.0,0 STARLINK-4119,1 53026U 22076AS  22208.66667824 -.00018650  00000-0 -12859-3 0  9992,2 53026  53.2181 279.9901 0002226  23.8226  69.3961 15.73225278  3661,6727.823,91.532,351.186,348.19,0.0
53026.0,STARLINK-4119,PAYLOAD,2022-07-27 22:00:00,15.73210007,0.000207,53.2179,278.7515,27.8262,42.121,0.00011221,0.00015163,0.0,0 STARLINK-4119,1 53026U 22076AS  22208.91667824  .00015163  00000-0  11221-3 0  9996,2 53026  53.2179 278.7515 0002070  27.8262  42.1210 15.73210007  1306,6727.8669999999975,91.533,351.124,348.339,0.0
53026.0,STARLINK-4119,PAYLOAD,2022-07-28 08:00:01,15.73276068,0.0002029999999999,53.218,276.6901,28.3397,242.7771,-0.00065936,-0.00092456,0.0,0 STARLINK-4119,1 53026U 22076AS  22209.33334491 -.00092456  00000-0 -65936-3 0  9998,2 53026  53.2180 276.6901 0002030  28.3397 242.7771 15.73276068  3777,6727.678000000001,91.529,350.909,348.17800000000005,0.0
53026.0,STARLINK-4119,PAYLOAD,2022-07-28 14:00:01,15.7321085,0.0002266999999999,53.2181,275.4544,25.697,222.1628,-0.00037386,-0.00052793,0.0,0 STARLINK-4119,1 53026U 22076AS  22209.58334491 -.00052793  00000-0 -37386-3 0  9993,2 53026  53.2181 275.4544 0002267  25.6970 222.1628 15.73210850  1304,6727.864000000001,91.533,351.254,348.204,0.0
53026.0,STARLINK-4119,PAYLOAD,2022-07-28 22:00:00,15.73148355,0.0002184,53.2182,273.8033,30.1381,306.6486,-2.5198e-05,-4.148e-05,0.0,0 STARLINK-4119,1 53026U 22076AS  22209.91667824 -.00004148  00000-0 -25198-4 0  9999,2 53026  53.2182 273.8033 0002184  30.1381 306.6486 15.73148355  1305,6728.042,91.536,351.37699999999984,348.43800000000016,0.0
53026.0,STARLINK-4119,PAYLOAD,2022-07-29 06:00:00,15.73172463,0.0002259,53.2182,272.1539,33.2723,32.38,5.9567e-05,7.737e-05,0.0,0 STARLINK-4119,1 53026U 22076AS  22210.25001157  .00007737  00000-0  59567-4 0  9991,2 53026  53.2182 272.1539 0002259  33.2723  32.3800 15.73172463  3914,6727.974,91.535,351.3590000000001,348.319,0.0
53026.0,STARLINK-4119,PAYLOAD,2022-07-29 14:00:01,15.73148978,0.0002505999999999,53.2178,270.5063,30.086,124.4657,0.000472,0.00066004,0.0,0 STARLINK-4119,1 53026U 22076AS  22210.58334491  .00066004  00000-0  47200-3 0  9999,2 53026  53.2178 270.5063 0002506  30.0860 124.4657 15.73148978  1303,6728.041,91.536,351.592,348.22,0.0
53026.0,STARLINK-4119,PAYLOAD,2022-07-29 22:00:00,15.73191339,0.0002319999999999,53.2175,268.8552,32.6121,210.84,0.0001272,0.00017262,0.0,0 STARLINK-4119,1 53026U 22076AS  22210.91667824  .00017262  00000-0  12720-3 0  9996,2 53026  53.2175 268.8552 0002320  32.6121 210.8400 15.73191339  1300,6727.92,91.534,351.346,348.224,0.0
53026.0,STARLINK-4119,PAYLOAD,2022-07-30 14:00:01,15.7321209,0.0002495,53.2175,265.5582,30.1326,31.1904,0.00022914,0.00031678,0.0,0 STARLINK-4119,1 53026U 22076AS  22211.58334491  .00031678  00000-0  22914-3 0  9994,2 53026  53.2175 265.5582 0002495  30.1326  31.1904 15.73212090  4124,6727.861,91.532,351.404,348.047,0.0
53026.0,STARLINK-4119,PAYLOAD,2022-07-30 22:00:00,15.73198516,0.0002275999999999,53.2177,263.9067,28.4991,121.7924,-8.3904e-05,-0.0001238,0.0,0 STARLINK-4119,1 53026U 22076AS  22211.91667824 -.00012380  00000-0 -83904-4 0  9998,2 53026  53.2177 263.9067 0002276  28.4991 121.7924 15.73198516  4170,6727.899,91.533,351.296,348.233,0.0
53026.0,STARLINK-4119,PAYLOAD,2022-07-31 14:00:01,15.73189595,0.0002583999999999,53.2173,260.6095,27.9506,300.204,0.00046416,0.00065004,0.0,0 STARLINK-4119,1 53026U 22076AS  22212.58334491  .00065004  00000-0  46416-3 0  9998,2 53026  53.2173 260.6095 0002584  27.9506 300.2040 15.73189595  4281,6727.925,91.534,351.528,348.051,0.0
53026.0,STARLINK-4119,PAYLOAD,2022-07-31 22:00:00,15.73240009,0.0002286,53.2172,258.958,28.7337,28.3707,-0.00020252,-0.00028998,0.0,0 STARLINK-4119,1 53026U 22076AS  22212.91667824 -.00028998  00000-0 -20252-3 0  9997,2 53026  53.2172 258.9580 0002286  28.7337  28.3707 15.73240009  1305,6727.781,91.531,351.184,348.108,0.0
53026.0,STARLINK-4119,PAYLOAD,2022-08-01 04:00:00,15.73221965,0.0002215999999999,53.2174,257.7208,29.3688,4.4587,-0.00021873,-0.00031237,0.0,0 STARLINK-4119,1 53026U 22076AS  22213.16667824 -.00031237  00000-0 -21873-3 0  9995,2 53026  53.2174 257.7208 0002216  29.3688   4.4587 15.73221965  4371,6727.833000000001,91.532,351.18800000000016,348.207,0.0
53026.0,STARLINK-4119,PAYLOAD,2022-08-01 14:00:01,15.73183554,0.0002477,53.2173,255.661,23.5147,211.4959,0.0005369,0.00075362,0.0,0 STARLINK-4119,1 53026U 22076AS  22213.58334491  .00075362  00000-0  53690-3 0  9999,2 53026  53.2173 255.6610 0002477  23.5147 211.4959 15.73183554  1303,6727.941999999999,91.534,351.474,348.141,0.0
53026.0,STARLINK-4119,PAYLOAD,2022-08-01 22:00:00,15.73228462,0.0002263,53.2177,254.0094,24.807,299.1437,-0.00010077,-0.00014758,0.0,0 STARLINK-4119,1 53026U 22076AS  22213.91667824 -.00014758  00000-0 -10077-3 0  9991,2 53026  53.2177 254.0094 0002263  24.8070 299.1437 15.73228462  4493,6727.814,91.532,351.202,348.157,0.0
53026.0,STARLINK-4119,PAYLOAD,2022-08-02 14:00:01,15.73175793,0.0002528,53.2175,250.7122,21.1953,120.6425,0.00045293,0.00063366,0.0,0 STARLINK-4119,1 53026U 22076AS  22214.58334491  .00063366  00000-0  45293-3 0  9991,2 53026  53.2175 250.7122 0002528  21.1953 120.6425 15.73175793  1300,6727.964,91.535,351.53,348.12800000000016,0.0
53026.0,STARLINK-4119,PAYLOAD,2022-08-03 06:00:00,15.73201228,0.0002278999999999,53.2177,247.4121,19.517,300.1944,-0.00015653,-0.00022534,0.0,0 STARLINK-4119,1 53026U 22076AS  22215.25001157 -.00022534  00000-0 -15653-3 0  9997,2 53026  53.2177 247.4121 0002279  19.5170 300.1944 15.73201228  4700,6727.892,91.533,351.29,348.223,0.0
53026.0,STARLINK-4119,PAYLOAD,2022-08-03 14:00:01,15.73177723,0.0002501,53.2175,245.7637,17.7014,30.9272,0.00041001,0.00057265,0.0,0 STARLINK-4119,1 53026U 22076AS  22215.58334491  .00057265  00000-0  41001-3 0  9996,2 53026  53.2175 245.7637 0002501  17.7014  30.9272 15.73177723  1303,6727.959,91.534,351.506,348.141,0.0
53026.0,STARLINK-4119,PAYLOAD,2022-08-03 22:00:01,15.73203276,0.0002293,53.218,244.1121,21.4845,116.1463,0.00026937,0.0003736,0.0,0 STARLINK-4119,1 53026U 22076AS  22215.91668981  .00037360  00000-0  26937-3 0  9992,2 53026  53.2180 244.1121 0002293  21.4845 116.1463 15.73203276  1304,6727.886,91.533,351.2940000000001,348.208,0.0
